{
    "links": {
        "self": "http://www.neowsapp.com/rest/v1/neo/3716632?api_key=iIulBulltgU6a56xZRHN4H3l9WmuAYTsLGpBGhQ2"
    },
    "id": "3716632",
    "neo_reference_id": "3716632",
    "name": "(2015 HQ9)",
    "designation": "2015 HQ9",
    "nasa_jpl_url": "http://ssd.jpl.nasa.gov/sbdb.cgi?sstr=3716632",
    "absolute_magnitude_h": 27.0,
    "estimated_diameter": {
        "kilometers": {
            "estimated_diameter_min": 0.0105816886,
            "estimated_diameter_max": 0.023661375
        },
        "meters": {
            "estimated_diameter_min": 10.5816885933,
            "estimated_diameter_max": 23.6613750114
        },
        "miles": {
            "estimated_diameter_min": 0.0065751544,
            "estimated_diameter_max": 0.0147024923
        },
        "feet": {
            "estimated_diameter_min": 34.7168272045,
            "estimated_diameter_max": 77.6291855923
        }
    },
    "is_potentially_hazardous_asteroid": false,
    "close_approach_data": [
        {
            "close_approach_date": "2015-03-31",
            "close_approach_date_full": "2015-Mar-31 10:31",
            "epoch_date_close_approach": 1427797860000,
            "relative_velocity": {
                "kilometers_per_second": "9.9030652733",
                "kilometers_per_hour": "35651.0349840433",
                "miles_per_hour": "22152.1667099462"
            },
            "miss_distance": {
                "astronomical": "0.0339563919",
                "lunar": "13.2090364491",
                "kilometers": "5079803.901125253",
                "miles": "3156443.7779163714"
            },
            "orbiting_body": "Earth"
        }
    ],
    "orbital_data": {
        "orbit_id": "3",
        "orbit_determination_date": "2017-04-06 08:34:14",
        "first_observation_date": "2015-04-18",
        "last_observation_date": "2015-04-21",
        "data_arc_in_days": 3,
        "observations_used": 14,
        "orbit_uncertainty": "9",
        "minimum_orbit_intersection": ".0288246",
        "jupiter_tisserand_invariant": "4.221",
        "epoch_osculation": "2457132.5",
        "eccentricity": ".4428693522700464",
        "semi_major_axis": "1.613740836031924",
        "inclination": "4.016649599915723",
        "ascending_node_longitude": "211.2819757727778",
        "orbital_period": "748.7711632210383",
        "perihelion_distance": ".8990644772467427",
        "perihelion_argument": "287.4799977999217",
        "aphelion_distance": "2.328417194817106",
        "perihelion_time": "2457073.562961291844",
        "mean_anomaly": "28.33620600940901",
        "mean_motion": ".4807877462205733",
        "equinox": "J2000",
        "orbit_class": {
            "orbit_class_type": "APO",
            "orbit_class_description": "Near-Earth asteroid orbits which cross the Earth’s orbit similar to that of 1862 Apollo",
            "orbit_class_range": "a (semi-major axis) > 1.0 AU; q (perihelion) < 1.017 AU"
        }
    },
    "is_sentry_object": false
}